HAWK-11A                
1 62382U 24247F   26068.51231358  .00009457  00000+0  34106-3 0  9991
2 62382  44.9941 114.3328 0005466 327.3713  32.6832 15.28849427 67741
STARLINK-35666          
1 66222U 25244S   26068.72595508  .00020100  00000+0  68969-3 0  9991
2 66222  53.1576 229.8410 0001039  42.1864 317.9216 15.30163345 21666
